{"type": "FeatureCollection", "features": [ {"type": "Feature", "properties": {"norad_id": 38953, "name": "BEIDOU-2 G6 (C02)", "group": "beidou", "lat": -3.683546425615022, "lon": -35.5923327058026, "alt_km": 35762.64927574347, "timestamp": "2025-12-08T10:52:03.212589+00:00", "meta": {"OBJECT_NAME": "BEIDOU-2 G6 (C02)", "OBJECT_ID": "2012-059A", "EPOCH": "2025-12-07T20:53:01.861152", "MEAN_MOTION": 1.00270169, "ECCENTRICITY": 0.00076498, "INCLINATION": 3.9366, "RA_OF_ASC_NODE": 75.5513, "ARG_OF_PERICENTER": 289.3533, "MEAN_ANOMALY": 109.2777, "EPHEMERIS_TYPE": 0, "CLASSIFICATION_TYPE": "U", "NORAD_CAT_ID": 38953, "ELEMENT_SET_NO": 999, "REV_AT_EPOCH": 4799, "BSTAR": 0, "MEAN_MOTION_DOT": -1.74e-06, "MEAN_MOTION_DDOT": 0}, "tle": {"line1": "1 38953U 12059A   25341.87016043 -.00000174  00000+0  00000+0 0  9990", "line2": "2 38953   3.9366  75.5513 0007649 289.3533 109.2777  1.00270169 47990"}}, "geometry": {"type": "Point", "coordinates": [-35.5923327058026, -3.683546425615022]}}, {"type": "Feature", "properties": {"norad_id": 40748, "name": "BEIDOU-3S M2S (C58)", "group": "beidou", "lat": -8.406969880441082, "lon": 134.52066647834678, "alt_km": 21522.396434677197, "timestamp": "2025-12-08T10:52:03.212601+00:00", "meta": {"OBJECT_NAME": "BEIDOU-3S M2S (C58)", "OBJECT_ID": "2015-037A", "EPOCH": "2025-12-07T02:16:25.877280", "MEAN_MOTION": 1.86229046, "ECCENTRICITY": 0.00123234, "INCLINATION": 55.0438, "RA_OF_ASC_NODE": 308.6574, "ARG_OF_PERICENTER": 268.1088, "MEAN_ANOMALY": 91.7345, "EPHEMERIS_TYPE": 0, "CLASSIFICATION_TYPE": "U", "NORAD_CAT_ID": 40748, "ELEMENT_SET_NO": 999, "REV_AT_EPOCH": 7054, "BSTAR": 0, "MEAN_MOTION_DOT": -7e-07, "MEAN_MOTION_DDOT": 0}, "tle": {"line1": "1 40748U 15037A   25341.09474395 -.00000070  00000+0  00000+0 0  9991", "line2": "2 40748  55.0438 308.6574 0012323 268.1088  91.7345  1.86229046 70540"}}, "geometry": {"type": "Point", "coordinates": [134.52066647834678, -8.406969880441082]}}, {"type": "Feature", "properties": {"norad_id": 40749, "name": "BEIDOU-3S M1S (C57)", "group": "beidou", "lat": 28.6611711025494, "lon": -28.952056261824076, "alt_km": 21515.17204504719, "timestamp": "2025-12-08T10:52:03.212618+00:00", "meta": {"OBJECT_NAME": "BEIDOU-3S M1S (C57)", "OBJECT_ID": "2015-037B", "EPOCH": "2025-12-01T22:57:46.412352", "MEAN_MOTION": 1.86253762, "ECCENTRICITY": 0.0003321, "INCLINATION": 55.0451, "RA_OF_ASC_NODE": 308.8236, "ARG_OF_PERICENTER": 355.9906, "MEAN_ANOMALY": 3.9975, "EPHEMERIS_TYPE": 0, "CLASSIFICATION_TYPE": "U", "NORAD_CAT_ID": 40749, "ELEMENT_SET_NO": 999, "REV_AT_EPOCH": 7045, "BSTAR": 0, "MEAN_MOTION_DOT": -6e-07, "MEAN_MOTION_DDOT": 0}, "tle": {"line1": "1 40749U 15037B   25335.95678718 -.00000060  00000+0  00000+0 0  9994", "line2": "2 40749  55.0451 308.8236 0003321 355.9906   3.9975  1.86253762 70451"}}, "geometry": {"type": "Point", "coordinates": [-28.952056261824076, 28.6611711025494]}}, {"type": "Feature", "properties": {"norad_id": 40938, "name": "BEIDOU-3S IGSO-2S (C56)", "group": "beidou", "lat": 47.26458576301111, "lon": -31.671158464257527, "alt_km": 35883.68423683205, "timestamp": "2025-12-08T10:52:03.212643+00:00", "meta": {"OBJECT_NAME": "BEIDOU-3S IGSO-2S (C56)", "OBJECT_ID": "2015-053A", "EPOCH": "2025-12-07T17:59:38.817312", "MEAN_MOTION": 1.00270783, "ECCENTRICITY": 0.0060962, "INCLINATION": 49.5194, "RA_OF_ASC_NODE": 261.0646, "ARG_OF_PERICENTER": 188.6217, "MEAN_ANOMALY": 353.0712, "EPHEMERIS_TYPE": 0, "CLASSIFICATION_TYPE": "U", "NORAD_CAT_ID": 40938, "ELEMENT_SET_NO": 999, "REV_AT_EPOCH": 3743, "BSTAR": 0, "MEAN_MOTION_DOT": -1.42e-06, "MEAN_MOTION_DDOT": 0}, "tle": {"line1": "1 40938U 15053A   25341.74975483 -.00000142  00000+0  00000+0 0  9996", "line2": "2 40938  49.5194 261.0646 0060962 188.6217 353.0712  1.00270783 37435"}}, "geometry": {"type": "Point", "coordinates": [-31.671158464257527, 47.26458576301111]}}, {"type": "Feature", "properties": {"norad_id": 41434, "name": "BEIDOU-2 IGSO-6 (C13)", "group": "beidou", "lat": -53.08100610952924, "lon": -10.307384002909028, "alt_km": 35675.40213335227, "timestamp": "2025-12-08T10:52:03.212664+00:00", "meta": {"OBJECT_NAME": "BEIDOU-2 IGSO-6 (C13)", "OBJECT_ID": "2016-021A", "EPOCH": "2025-12-01T15:57:35.287200", "MEAN_MOTION": 1.00256562, "ECCENTRICITY": 0.00591323, "INCLINATION": 59.9483, "RA_OF_ASC_NODE": 40.0119, "ARG_OF_PERICENTER": 231.2834, "MEAN_ANOMALY": 130.8807, "EPHEMERIS_TYPE": 0, "CLASSIFICATION_TYPE": "U", "NORAD_CAT_ID": 41434, "ELEMENT_SET_NO": 999, "REV_AT_EPOCH": 3550, "BSTAR": 0, "MEAN_MOTION_DOT": -1.55e-06, "MEAN_MOTION_DDOT": 0}, "tle": {"line1": "1 41434U 16021A   25335.66499175 -.00000155  00000+0  00000+0 0  9991", "line2": "2 41434  59.9483  40.0119 0059132 231.2834 130.8807  1.00256562 35501"}}, "geometry": {"type": "Point", "coordinates": [-10.307384002909028, -53.08100610952924]}}, {"type": "Feature", "properties": {"norad_id": 41586, "name": "BEIDOU-2 G7 (C03)", "group": "beidou", "lat": -1.698071316373669, "lon": -9.099683525772164, "alt_km": 35782.95967948209, "timestamp": "2025-12-08T10:52:03.212678+00:00", "meta": {"OBJECT_NAME": "BEIDOU-2 G7 (C03)", "OBJECT_ID": "2016-037A", "EPOCH": "2025-12-07T22:43:12.465984", "MEAN_MOTION": 1.00269482, "ECCENTRICITY": 0.00044255, "INCLINATION": 1.7451, "RA_OF_ASC_NODE": 67.7531, "ARG_OF_PERICENTER": 0.5194, "MEAN_ANOMALY": 99.9683, "EPHEMERIS_TYPE": 0, "CLASSIFICATION_TYPE": "U", "NORAD_CAT_ID": 41586, "ELEMENT_SET_NO": 999, "REV_AT_EPOCH": 497, "BSTAR": 0, "MEAN_MOTION_DOT": -3.51e-06, "MEAN_MOTION_DDOT": 0}, "tle": {"line1": "1 41586U 16037A   25341.94667206 -.00000351  00000+0  00000+0 0  9994", "line2": "2 41586   1.7451  67.7531 0004425   0.5194  99.9683  1.00269482  4973"}}, "geometry": {"type": "Point", "coordinates": [-9.099683525772164, -1.698071316373669]}}, {"type": "Feature", "properties": {"norad_id": 43001, "name": "BEIDOU-3 M1 (C19)", "group": "beidou", "lat": -33.21710751765221, "lon": 43.74844809890475, "alt_km": 21507.916238798014, "timestamp": "2025-12-08T10:52:03.212689+00:00", "meta": {"OBJECT_NAME": "BEIDOU-3 M1 (C19)", "OBJECT_ID": "2017-069A", "EPOCH": "2025-12-07T10:33:38.997216", "MEAN_MOTION": 1.86230818, "ECCENTRICITY": 0.00090499, "INCLINATION": 56.5227, "RA_OF_ASC_NODE": 69.4088, "ARG_OF_PERICENTER": 303.7178, "MEAN_ANOMALY": 56.2144, "EPHEMERIS_TYPE": 0, "CLASSIFICATION_TYPE": "U", "NORAD_CAT_ID": 43001, "ELEMENT_SET_NO": 999, "REV_AT_EPOCH": 5503, "BSTAR": 0, "MEAN_MOTION_DOT": -4.4e-07, "MEAN_MOTION_DDOT": 0}, "tle": {"line1": "1 43001U 17069A   25341.44003469 -.00000044  00000+0  00000+0 0  9993", "line2": "2 43001  56.5227  69.4088 0009049 303.7178  56.2144  1.86230818 55035"}}, "geometry": {"type": "Point", "coordinates": [43.74844809890475, -33.21710751765221]}}, {"type": "Feature", "properties": {"norad_id": 43002, "name": "BEIDOU-3 M2 (C20)", "group": "beidou", "lat": 0.2859961964381968, "lon": 69.61037008045922, "alt_km": 21512.93038635617, "timestamp": "2025-12-08T10:52:03.212700+00:00", "meta": {"OBJECT_NAME": "BEIDOU-3 M2 (C20)", "OBJECT_ID": "2017-069B", "EPOCH": "2025-12-07T09:04:52.679136", "MEAN_MOTION": 1.86230635, "ECCENTRICITY": 0.00063308, "INCLINATION": 56.5218, "RA_OF_ASC_NODE": 69.4472, "ARG_OF_PERICENTER": 331.2047, "MEAN_ANOMALY": 28.7785, "EPHEMERIS_TYPE": 0, "CLASSIFICATION_TYPE": "U", "NORAD_CAT_ID": 43002, "ELEMENT_SET_NO": 999, "REV_AT_EPOCH": 5502, "BSTAR": 0, "MEAN_MOTION_DOT": -4.4e-07, "MEAN_MOTION_DDOT": 0}, "tle": {"line1": "1 43002U 17069B   25341.37838749 -.00000044  00000+0  00000+0 0  9993", "line2": "2 43002  56.5218  69.4472 0006330 331.2047  28.7785  1.86230635 55025"}}, "geometry": {"type": "Point", "coordinates": [69.61037008045922, 0.2859961964381968]}}, {"type": "Feature", "properties": {"norad_id": 43107, "name": "BEIDOU-3 M7 (C27)", "group": "beidou", "lat": 5.935219578617912, "lon": 124.69113649879468, "alt_km": 21529.122986305632, "timestamp": "2025-12-08T10:52:03.212712+00:00", "meta": {"OBJECT_NAME": "BEIDOU-3 M7 (C27)", "OBJECT_ID": "2018-003A", "EPOCH": "2025-12-07T02:54:56.285856", "MEAN_MOTION": 1.86232289, "ECCENTRICITY": 0.00027014, "INCLINATION": 54.5017, "RA_OF_ASC_NODE": 309.0103, "ARG_OF_PERICENTER": 69.3468, "MEAN_ANOMALY": 290.667, "EPHEMERIS_TYPE": 0, "CLASSIFICATION_TYPE": "U", "NORAD_CAT_ID": 43107, "ELEMENT_SET_NO": 999, "REV_AT_EPOCH": 5377, "BSTAR": 0, "MEAN_MOTION_DOT": -7.2e-07, "MEAN_MOTION_DDOT": 0}, "tle": {"line1": "1 43107U 18003A   25341.12148479 -.00000072  00000+0  00000+0 0  9996", "line2": "2 43107  54.5017 309.0103 0002701  69.3468 290.6670  1.86232289 53774"}}, "geometry": {"type": "Point", "coordinates": [124.69113649879468, 5.935219578617912]}}, {"type": "Feature", "properties": {"norad_id": 43108, "name": "BEIDOU-3 M8 (C28)", "group": "beidou", "lat": -23.6324770165453, "lon": 147.11692226767298, "alt_km": 21525.804662481438, "timestamp": "2025-12-08T10:52:03.212723+00:00", "meta": {"OBJECT_NAME": "BEIDOU-3 M8 (C28)", "OBJECT_ID": "2018-003B", "EPOCH": "2025-12-07T14:28:44.838336", "MEAN_MOTION": 1.86230783, "ECCENTRICITY": 0.00047344, "INCLINATION": 54.4942, "RA_OF_ASC_NODE": 308.9763, "ARG_OF_PERICENTER": 275.286, "MEAN_ANOMALY": 84.6457, "EPHEMERIS_TYPE": 0, "CLASSIFICATION_TYPE": "U", "NORAD_CAT_ID": 43108, "ELEMENT_SET_NO": 999, "REV_AT_EPOCH": 5379, "BSTAR": 0, "MEAN_MOTION_DOT": -7.2e-07, "MEAN_MOTION_DDOT": 0}, "tle": {"line1": "1 43108U 18003B   25341.60329674 -.00000072  00000+0  00000+0 0  9998", "line2": "2 43108  54.4942 308.9763 0004734 275.2860  84.6457  1.86230783 53796"}}, "geometry": {"type": "Point", "coordinates": [147.11692226767298, -23.6324770165453]}}]}